PROBA-1                 
1 26958U 01049B   22253.48465896  .00001400  00000+0  12213-3 0  9994
2 26958  97.8302 213.3879 0072563  61.0830 299.7644 14.96533036137120
BIRD 2                  
1 26959U 01049C   22253.27725624  .00013533  00000+0  27757-3 0  9999
2 26959  97.7638 350.9076 0007354  72.9155 287.2899 15.46155412466286
CUTE-1 (CO-55)          
1 27844U 03031E   22253.53774956  .00000200  00000+0  10934-3 0  9993
2 27844  98.6810 259.9463 0009161 209.9934 150.0721 14.22489986995967
CUBESAT XI-IV (CO-57)   
1 27848U 03031J   22253.45700241  .00000160  00000+0  92238-4 0  9997
2 27848  98.6854 260.3681 0008827 225.8526 134.1927 14.22041987995763
GENESIS 1               
1 29252U 06029A   22253.21598097  .00003506  00000+0  15931-3 0  9997
2 29252  64.5225 152.6258 0056033 249.4083 110.1026 15.21238883891866
FALCONSAT-3             
1 30776U 07006E   22252.87738100  .00054921  00000+0  67228-3 0  9991
2 30776  35.4296  64.9000 0001634  46.5180 313.5689 15.59262749862743
GENESIS 2               
1 31789U 07028A   22253.21875868  .00004722  00000+0  21844-3 0  9990
2 31789  64.4962 196.0113 0055145 301.1125  58.4595 15.20124599838783
APRIZESAT 4             
1 35684U 09041D   22253.50708763  .00000486  00000+0  71185-4 0  9993
2 35684  98.3106 270.0662 0048090  79.3086 281.3534 14.79719614707641
APRIZESAT 3             
1 35686U 09041F   22253.49867167  .00000684  00000+0  77884-4 0  9999
2 35686  98.1052 342.0623 0070597 268.3931  90.9198 14.88034994711257
PROBA-2                 
1 36037U 09059B   22253.52918779  .00000131  00000+0  42273-4 0  9990
2 36037  98.2252  78.5293 0012859 202.0081 158.0565 14.53288567681612
APRIZESAT 5             
1 37792U 11044E   22253.45768141  .00000471  00000+0  74989-4 0  9990
2 37792  98.3115 131.3377 0059014  93.2309 267.5653 14.75829593595531
APRIZESAT 6             
1 37793U 11044F   22253.57225793  .00000396  00000+0  69461-4 0  9990
2 37793  98.3917 108.4991 0047256 144.4056 270.0546 14.72845780594398
TET-1                   
1 38710U 12039D   22253.47916857  .00094306  00000+0  50002-3 0  9996
2 38710  97.5049 341.0212 0001537 146.0153 214.1213 15.80270270570798
PROBA-V                 
1 39159U 13021A   22253.09179396  .00000034  00000+0  33199-4 0  9997
2 39159  98.3519 284.6989 0003911 187.3567 172.7556 14.23046922485363
STPSAT-3                
1 39380U 13064A   22253.41190794  .00029607  00000+0  55004-3 0  9996
2 39380  40.4963 245.3427 0008338 213.9153 146.1132 15.48194424492458
APRIZESAT 7             
1 39416U 13066A   22253.55005072  .00000737  00000+0  92114-4 0  9994
2 39416  97.5808 229.4616 0042302  78.1512 282.4443 14.84556368476663
APRIZESAT 8             
1 39425U 13066K   22253.47572905  .00000562  00000+0  76147-4 0  9993
2 39425  97.6356 220.9350 0052744 121.2177 239.4221 14.81698135475550
BUGSAT-1 (TITA)         
1 40014U 14033E   22253.56710168  .00003284  00000+0  28816-3 0  9992
2 40014  98.1446 255.4748 0032327 114.4440 246.0156 14.96979623448874
SAUDISAT 4              
1 40016U 14033G   22253.53796229  .00000383  00000+0  62362-4 0  9995
2 40016  97.6403  83.7061 0046993 224.1811 135.5642 14.75614543442946
APRIZESAT 9             
1 40018U 14033J   22253.47180545  .00000294  00000+0  54964-4 0  9998
2 40018  97.7238  59.5314 0069784 301.1931  58.2448 14.70320422441140
APRIZESAT 10            
1 40019U 14033K   22253.39290081  .00000199  00000+0  41945-4 0  9996
2 40019  97.7794  49.2866 0083493 346.2865  13.6072 14.67360215440254
TDS 1                   
1 40076U 14037H   22253.56733348  .00001625  00000+0  19317-3 0  9992
2 40076  98.3777 130.9966 0007306 145.8888 214.2796 14.85905766442341
TIANTUO 2               
1 40144U 14053B   22253.45568580  .00005595  00000+0  14838-3 0  9991
2 40144  97.1900 331.7293 0009051 249.6480 170.1779 15.38679991448160
TECHNOSAT               
1 42829U 17042E   22253.52853933  .00001286  00000+0  13165-3 0  9996
2 42829  97.4123 102.6749 0015533  83.3280 276.9707 14.92026955280778
FLYING LAPTOP           
1 42831U 17042G   22253.44357798  .00000568  00000+0  61183-4 0  9994
2 42831  97.4150 102.9278 0015381  83.6908 276.6063 14.91909699280767
HAWK-A                  
1 43765U 18099H   22253.48815211  .00001136  00000+0  10271-3 0  9990
2 43765  97.6129 319.3270 0014434 352.6642   7.4366 14.97296708205860
HAWK-B                  
1 43794U 18099AN  22253.15439466  .00001150  00000+0  10395-3 0  9993
2 43794  97.6129 319.0017 0014487 353.9442   6.1603 14.97295686205806
HAWK-C                  
1 43799U 18099AT  22253.48835381  .00001110  00000+0  10049-3 0  9992
2 43799  97.6127 319.2347 0014393 352.5933   7.5074 14.97297149206605
SALSAT                  
1 46495U 20068K   22253.35207342  .00001691  00000+0  12397-3 0  9995
2 46495  97.7335 194.7129 0016224 356.9815   3.1310 15.04808034106951
